OBJECT_NAME,OBJECT_ID,EPOCH,MEAN_MOTION,ECCENTRICITY,INCLINATION,RA_OF_ASC_NODE,ARG_OF_PERICENTER,MEAN_ANOMALY,EPHEMERIS_TYPE,CLASSIFICATION_TYPE,NORAD_CAT_ID,ELEMENT_SET_NO,REV_AT_EPOCH,BSTAR,MEAN_MOTION_DOT,MEAN_MOTION_DDOT
ONEWEB-0068,2020-020Y,2026-06-14T02:26:06.406656,13.11418968,.00017655,87.8899,21.6780,78.7374,281.3952,0,U,45446,999,30219,-.84126474E-3,-.285E-5,0
ONEWEB-0046,2020-020Z,2026-06-14T02:14:05.066016,13.11415656,.00020358,87.8892,21.6860,79.6154,280.5203,0,U,45447,999,30220,-.13297351E-2,-.459E-5,0
ONEWEB-0063,2020-020AA,2026-06-14T02:55:48.357408,13.11419934,.00021348,87.8899,21.6786,86.1437,273.9935,0,U,45448,999,30229,.12799375E-2,.466E-5,0
ONEWEB-0019,2020-020AB,2026-06-14T03:51:33.381792,13.11414887,.00017057,87.8892,21.6572,89.1859,270.9465,0,U,45449,999,30214,-.12157524E-2,-.418E-5,0
ONEWEB-0094,2020-020AC,2026-06-14T02:08:56.829696,13.17647426,.00016317,87.9145,6.4651,85.1012,275.0306,0,U,45450,999,30590,.99775343E-4,.52E-6,0
ONEWEB-0087,2020-020AD,2026-06-14T03:10:04.164960,13.11416488,.00017169,87.8907,21.6503,75.8005,284.3314,0,U,45451,999,30218,.14320088E-2,.52E-5,0
ONEWEB-0082,2020-020AE,2026-06-14T03:05:12.022368,13.11417990,.00019082,87.8898,21.6679,70.5713,289.5621,0,U,45452,999,30227,.15685074E-2,.569E-5,0
ONEWEB-0050,2020-020AF,2026-06-14T04:31:00.771168,14.90371193,.00036173,88.9301,233.6175,33.8639,326.2820,0,U,45453,999,33993,.25865156E-3,.2537E-4,0
ONEWEB-0034,2020-020AG,2026-06-14T02:09:24.522624,13.11423504,.00017365,87.8897,21.6849,84.9654,275.1672,0,U,45454,999,30218,-.27046444E-2,-.946E-5,0
ONEWEB-0060,2020-020AH,2026-06-14T02:54:23.313888,13.11418619,.00014255,87.8891,21.6770,50.5662,309.5592,0,U,45455,999,30214,.13076809E-2,.476E-5,0
ONEWEB-0086,2020-020AJ,2026-06-14T02:23:39.718464,13.11416849,.00010589,87.8900,21.6768,76.6961,283.4285,0,U,45456,999,30220,-.10774554E-2,-.369E-5,0
ONEWEB-0088,2020-020AK,2026-06-14T03:41:59.474976,13.11416154,.00021937,87.8906,21.6380,80.8124,279.3252,0,U,45457,999,30214,-.65202932E-3,-.218E-5,0
ONEWEB-0102,2020-100A,2026-06-14T05:41:11.554656,13.12442778,.00015798,87.8938,351.2622,96.6756,263.4553,0,U,47258,999,26434,-.17337439E-2,-.611E-5,0
ONEWEB-0109,2020-100B,2026-06-14T05:53:23.634816,13.12445187,.00018179,87.8948,351.2438,95.6877,264.4459,0,U,47259,999,26417,-.81585897E-3,-.281E-5,0
ONEWEB-0110,2020-100C,2026-06-14T06:32:26.395008,13.12443931,.0001548,87.8949,351.2227,87.8757,272.2548,0,U,47260,999,26434,.11737865E-2,.435E-5,0
ONEWEB-0111,2020-100D,2026-06-14T05:26:33.324576,13.12440602,.00017662,87.8948,351.2501,86.9715,273.1616,0,U,47261,999,26417,-.73828967E-3,-.253E-5,0
ONEWEB-0114,2020-100E,2026-06-14T06:10:28.575552,13.12444998,.00020051,87.8949,351.2418,96.2295,263.9062,0,U,47262,999,26413,.14532981E-3,.65E-6,0
ONEWEB-0117,2020-100F,2026-06-13T22:39:09.447840,13.12444310,.0001763,87.8946,351.2952,90.5237,269.6093,0,U,47263,999,26410,-.39825466E-3,-.131E-5,0
ONEWEB-0118,2020-100G,2026-06-14T04:57:17.953056,13.12442145,.00021352,87.8947,351.2454,92.4418,267.6955,0,U,47264,999,26433,.88876839E-3,.332E-5,0
ONEWEB-0119,2020-100H,2026-06-14T05:33:53.182656,13.12442833,.00018085,87.8937,351.2572,90.5708,269.5628,0,U,47265,999,26431,-.11190767E-2,-.39E-5,0
ONEWEB-0120,2020-100J,2026-06-14T06:08:14.760960,13.12444615,.00018219,87.8938,351.2540,96.4296,263.7040,0,U,47266,999,26434,.59810409E-4,.34E-6,0
ONEWEB-0121,2020-100K,2026-06-13T22:31:50.035584,13.12444345,.00017632,87.8950,351.3029,80.3897,279.7430,0,U,47267,999,26421,-.84068682E-3,-.29E-5,0
ONEWEB-0122,2020-100L,2026-06-14T02:02:52.204416,13.12443178,.00016907,87.8950,351.2777,95.4564,264.6757,0,U,47268,999,26414,-.11756731E-2,-.41E-5,0
ONEWEB-0123,2020-100M,2026-06-14T05:36:19.343808,13.12443586,.00019377,87.8938,351.2560,90.4963,269.6387,0,U,47269,999,26430,-.11915016E-2,-.416E-5,0
ONEWEB-0124,2020-100N,2026-06-14T05:21:41.194944,13.12442989,.00017932,87.8936,351.2611,86.9769,273.1565,0,U,47270,999,26418,-.42132444E-3,-.139E-5,0
ONEWEB-0125,2020-100P,2026-06-14T01:10:24.557376,13.12444086,.00019919,87.8948,351.2789,82.2597,277.8757,0,U,47271,999,26422,.11540615E-2,.428E-5,0
ONEWEB-0126,2020-100Q,2026-06-14T05:19:27.572160,13.12441447,.000186,87.8941,351.2604,94.1580,265.9761,0,U,47272,999,26431,-.51576169E-3,-.173E-5,0
ONEWEB-0127,2020-100R,2026-06-14T06:20:14.251776,13.12444551,.00018159,87.8937,351.2510,95.0510,265.0825,0,U,47273,999,26434,.73869434E-3,.278E-5,0
ONEWEB-0128,2020-100S,2026-06-14T05:02:10.316832,13.12441867,.00015068,87.8936,351.2756,86.6685,273.4616,0,U,47274,999,26435,.73515229E-3,.277E-5,0
ONEWEB-0129,2020-100T,2026-06-14T06:22:41.169792,13.12443804,.00023167,87.8946,351.2380,119.5833,240.5527,0,U,47275,999,26429,.92444771E-3,.345E-5,0
